STARLINK-2349_new
1 17889C 21021AF  21326.18576759  .00002962  00000-0  19849-3 0  3261
2 17889  53.0555 112.9085 0001592  87.4089  40.3811 15.06394848    16
STARLINK-2349_old
1 27889C 21021AF  21325.15074338  .00002038  00000-0  13660-3 0  3251
2 27889  53.0548 117.5545 0001637  86.9763 184.7618 15.06387837    11
